{
    "links": {
        "self": "http://www.neowsapp.com/rest/v1/neo/3515452?api_key=iIulBulltgU6a56xZRHN4H3l9WmuAYTsLGpBGhQ2"
    },
    "id": "3515452",
    "neo_reference_id": "3515452",
    "name": "(2010 GW23)",
    "designation": "2010 GW23",
    "nasa_jpl_url": "http://ssd.jpl.nasa.gov/sbdb.cgi?sstr=3515452",
    "absolute_magnitude_h": 24.0,
    "estimated_diameter": {
        "kilometers": {
            "estimated_diameter_min": 0.0421264611,
            "estimated_diameter_max": 0.0941976306
        },
        "meters": {
            "estimated_diameter_min": 42.1264610556,
            "estimated_diameter_max": 94.1976305719
        },
        "miles": {
            "estimated_diameter_min": 0.0261761612,
            "estimated_diameter_max": 0.0585316759
        },
        "feet": {
            "estimated_diameter_min": 138.2101784897,
            "estimated_diameter_max": 309.0473542854
        }
    },
    "is_potentially_hazardous_asteroid": false,
    "close_approach_data": [
        {
            "close_approach_date": "2010-03-21",
            "close_approach_date_full": "2010-Mar-21 05:35",
            "epoch_date_close_approach": 1269149700000,
            "relative_velocity": {
                "kilometers_per_second": "12.2255065934",
                "kilometers_per_hour": "44011.8237362591",
                "miles_per_hour": "27347.2356987883"
            },
            "miss_distance": {
                "astronomical": "0.0333459037",
                "lunar": "12.9715565393",
                "kilometers": "4988476.166745119",
                "miles": "3099695.3552318822"
            },
            "orbiting_body": "Earth"
        },
        {
            "close_approach_date": "2150-03-22",
            "close_approach_date_full": "2150-Mar-22 07:28",
            "epoch_date_close_approach": 5687220480000,
            "relative_velocity": {
                "kilometers_per_second": "11.9357545535",
                "kilometers_per_hour": "42968.7163924409",
                "miles_per_hour": "26699.0893606253"
            },
            "miss_distance": {
                "astronomical": "0.0412894464",
                "lunar": "16.0615946496",
                "kilometers": "6176813.234919168",
                "miles": "3838093.7694057984"
            },
            "orbiting_body": "Earth"
        }
    ],
    "orbital_data": {
        "orbit_id": "10",
        "orbit_determination_date": "2017-04-06 08:57:52",
        "first_observation_date": "2010-04-09",
        "last_observation_date": "2010-04-18",
        "data_arc_in_days": 9,
        "observations_used": 46,
        "orbit_uncertainty": "8",
        "minimum_orbit_intersection": ".0140181",
        "jupiter_tisserand_invariant": "4.052",
        "epoch_osculation": "2455298.5",
        "eccentricity": ".5278475377424151",
        "semi_major_axis": "1.68471558221061",
        "inclination": "4.502175956753561",
        "ascending_node_longitude": "193.3862847297374",
        "orbital_period": "798.7085178154219",
        "perihelion_distance": ".7954426103444604",
        "perihelion_argument": "284.0225232878941",
        "aphelion_distance": "2.57398855407676",
        "perihelion_time": "2455232.796186446291",
        "mean_anomaly": "29.61452438748303",
        "mean_motion": ".4507276333857684",
        "equinox": "J2000",
        "orbit_class": {
            "orbit_class_type": "APO",
            "orbit_class_description": "Near-Earth asteroid orbits which cross the Earth’s orbit similar to that of 1862 Apollo",
            "orbit_class_range": "a (semi-major axis) > 1.0 AU; q (perihelion) < 1.017 AU"
        }
    },
    "is_sentry_object": false
}